IRIDIUM 126             
1 42809U 17039G   24091.57804672  .00000422  00000+0  14357-3 0  9998
2 42809  86.3988 331.1651 0002129  92.6644 267.4796 14.34217369354195
IRIDIUM 124             
1 42810U 17039H   24091.55609357  .00000263  00000+0  72296-4 0  9991
2 42810  86.4439 267.8787 0002193  84.6177 275.5274 14.43284975358627
IRIDIUM 128             
1 42811U 17039J   24091.49901082  .00000206  00000+0  66532-4 0  9998
2 42811  86.4029   2.6982 0002367  84.7949 275.3517 14.34210849354214
IRIDIUM 121             
1 42812U 17039K   24091.59707204  .00000010  00000+0 -36242-5 0  9990
2 42812  86.3983 331.1791 0001998  87.4839 272.6585 14.34217024354079
IRIDIUM 133             
1 42955U 17061A   24091.46095693  .00000692  00000+0  23994-3 0  9994
2 42955  86.4026   2.8121 0002169  88.2235 271.9209 14.34217412339007
IRIDIUM 100             
1 42956U 17061B   24091.45461459  .00000635  00000+0  21952-3 0  9990
2 42956  86.4028   2.7521 0002206  87.8000 272.3448 14.34219398339005
IRIDIUM 129             
1 42958U 17061D   24091.44827603  .00000579  00000+0  19985-3 0  9998
2 42958  86.4028   2.8115 0002269  89.3901 270.7555 14.34214016339028
